STARLINK-2022           
1 47643U 21012Z   24139.40164251 -.00001476  00000+0 -80209-4 0  9994
2 47643  53.0534 135.7625 0001377  86.8469 273.2677 15.06390948180743
